METOP-C                 
1 43689U 18087A   26185.59448250  .00000144  00000+0  85661-4 0  9991
2 43689  98.6635 244.8793 0002181 107.2589 252.8828 14.21517124397305
GEO-KOMPSAT-2A          
1 43823U 18100A   26183.83125884 -.00000333  00000+0  00000+0 0  9997
2 43823   0.0451 169.6912 0002255 284.8102 253.8622  1.00268738 27782
METEOR-M2 2             
1 44387U 19038A   26185.94667553  .00000104  00000+0  64679-4 0  9994
2 44387  98.9154 173.4949 0001254  21.9011 338.2221 14.24370707363825
ARKTIKA-M 1             
1 47719U 21016A   26180.95192977 -.00000281  00000+0  00000+0 0  9994
2 47719  63.2520  55.7907 7292817 269.9910  14.5481  2.00617895 39040
FENGYUN 3E              
1 49008U 21062A   26185.95935432 -.00000363  00000+0 -15022-3 0  9990
2 49008  98.7494 189.1692 0002613  56.9325 303.2102 14.19904719259105
GOES 18                 
1 51850U 22021A   26185.51086661  .00000109  00000+0  00000+0 0  9999
2 51850   0.0415 221.7763 0000592 303.1764 164.4734  1.00270988  6762
NOAA 21 (JPSS-2)        
1 54234U 22150A   26185.79634938  .00000105  00000+0  70282-4 0  9997
2 54234  98.7060 124.2897 0002537 122.5556 237.5865 14.19539925189042
METEOSAT-12 (MTG-I1)    
1 54743U 22170C   26185.86375722  .00000007  00000+0  00000+0 0  9992
2 54743   0.7575  25.6360 0003496  75.7376 132.2410  1.00276424 13157
TIANMU-1 03             
1 55973U 23039A   26185.96139453  .00022304  00000+0  43065-3 0  9999
2 55973  97.5244   0.6326 0003401  53.1511 307.0050 15.47816421183582
TIANMU-1 04             
1 55974U 23039B   26185.94391236  .00022624  00000+0  42754-3 0  9996
2 55974  97.5180 359.7698 0003869  48.1395 312.0185 15.48432251183596
TIANMU-1 05             
1 55975U 23039C   26185.94302443  .00021441  00000+0  41518-3 0  9992
2 55975  97.5226   0.2219 0003641  72.7514 287.4134 15.47740078183563
TIANMU-1 06             
1 55976U 23039D   26185.94842054  .00022356  00000+0  42400-3 0  9997
2 55976  97.5232   0.8813 0003848  67.0314 293.1342 15.48330664183596
FENGYUN 3G              
1 56232U 23055A   26185.80059722  .00041154  00000+0  63993-3 0  9995
2 56232  49.9916 255.2163 0007266  10.0967 350.0145 15.53439729182744
METEOR-M2 3             
1 57166U 23091A   26185.94508572  .00000015  00000+0  25504-4 0  9997
2 57166  98.6078 240.5593 0005067 113.2311 246.9402 14.24048357157045
TIANMU-1 07             
1 57399U 23101A   26185.95592061  .00010534  00000+0  36476-3 0  9990
2 57399  97.2577 236.2173 0004219  85.5582 274.6141 15.30026105164363
TIANMU-1 08             
1 57400U 23101B   26185.98791396  .00009939  00000+0  34424-3 0  9996
2 57400  97.2566 236.0167 0005373  72.6753 287.5075 15.30031703164363
TIANMU-1 09             
1 57401U 23101C   26185.97093707  .00010456  00000+0  36161-3 0  9993
2 57401  97.2524 235.4068 0004823  87.4809 272.6985 15.30068564164366
TIANMU-1 10             
1 57402U 23101D   26185.93890588  .00010675  00000+0  36934-3 0  9993
2 57402  97.2604 236.4441 0006287  81.1293 279.0659 15.30041444164352
FENGYUN 3F              
1 57490U 23111A   26185.94284890  .00000081  00000+0  58486-4 0  9992
2 57490  98.6829 255.6202 0001465  81.3252 278.8091 14.19942269151388
ARKTIKA-M 2             
1 58584U 23198A   26180.72239164  .00000148  00000+0  00000+0 0  9995
2 58584  63.2199 152.9641 6905877 267.3845  18.7575  2.00610643 18573
TIANMU-1 11             
1 58645U 23205A   26186.00776191  .00008557  00000+0  32352-3 0  9996
2 58645  97.3441 207.2861 0007012 307.9839  52.0766 15.27187630140240
TIANMU-1 12             
1 58646U 23205B   26185.97902586  .00008186  00000+0  31132-3 0  9994
2 58646  97.3430 207.0089 0005472 282.5594  77.5033 15.27016496140221
TIANMU-1 13             
1 58647U 23205C   26186.01241833  .00008682  00000+0  33009-3 0  9998
2 58647  97.3458 207.3181 0005027 258.2446 101.8230 15.27009278140220
TIANMU-1 14             
1 58648U 23205D   26185.99710394  .00008921  00000+0  33859-3 0  9997
2 58648  97.3394 206.4709 0005784 265.8854  94.1724 15.27054140140223
TIANMU-1 19             
1 58660U 23208A   26185.92578157  .00012904  00000+0  42174-3 0  9992
2 58660  97.4520 302.3205 0003732 241.2784 118.8083 15.31856838140048
TIANMU-1 20             
1 58661U 23208B   26185.94981270  .00012830  00000+0  40399-3 0  9994
2 58661  97.4463 302.9984 0005664 255.2230 104.8385 15.33045664140142
TIANMU-1 21             
1 58662U 23208C   26185.91115795  .00014629  00000+0  42712-3 0  9992
2 58662  97.4523 305.7175 0005865 245.6798 114.3833 15.35408934140282
TIANMU-1 22             
1 58663U 23208D   26185.91366810  .00011522  00000+0  38331-3 0  9990
2 58663  97.4517 302.2291 0002184 274.4843  85.6149 15.31318325140043
TIANMU-1 15             
1 58700U 24004A   26185.98930653  .00008467  00000+0  32373-3 0  9990
2 58700  97.4672  12.1798 0005658 273.7334  86.3257 15.26836805138498
TIANMU-1 16             
1 58701U 24004B   26186.04499336  .00007860  00000+0  29985-3 0  9998
2 58701  97.4620  11.4576 0004383 294.7493  65.3290 15.26939729138506
TIANMU-1 17             
1 58702U 24004C   26186.03046236  .00007250  00000+0  27684-3 0  9992
2 58702  97.4646  11.9346 0003989 302.8633  57.2222 15.26937344138497
TIANMU-1 18             
1 58703U 24004D   26185.94045492  .00008267  00000+0  31606-3 0  9993
2 58703  97.4664  12.1062 0003355 276.3991  83.6865 15.26853916138482
INSAT-3DS               
1 58990U 24033A   26185.80880649 -.00000143  00000+0  00000+0 0  9995
2 58990   0.0762  96.1964 0001235  13.6104 186.2343  1.00273232 47243
METEOR-M2 4             
1 59051U 24039A   26185.97995653  .00000030  00000+0  33252-4 0  9994
2 59051  98.7019 145.0550 0008102 114.2131 245.9895 14.22431406121799
GOES 19                 
1 60133U 24119A   26185.84893336 -.00000235  00000+0  00000+0 0  9995
2 60133   0.0081 177.0624 0000570 357.0942 339.1148  1.00270089  7141
MTG-S1                  
1 64723U 25143A   26185.86375722  .00000005  00000+0  00000+0 0  9992
2 64723   0.5901 342.6521 0003099 262.4706 348.2447  1.00272407  3592
METOP-SGA1              
1 65159U 25172A   26185.40515773  .00000063  00000+0  50116-4 0  9992
2 65159  98.6635 244.7686 0007675   4.4509 355.6734 14.19817913 46231
FENGYUN 3H              
1 65815U 25219A   26185.58712798  .00000099  00000+0  66944-4 0  9993
2 65815  98.6770 126.0181 0001377  65.8289 294.3032 14.19923623 39857
OSCAR 7 (AO-7)          
1 07530U 74089B   26185.80294468 -.00000044  00000+0  13207-4 0  9991
2 07530 101.9900 199.2331 0012660  97.5363  75.1634 12.53698408362725
PHASE 3B (AO-10)        
1 14129U 83058B   26185.36417749  .00000171  00000+0  00000+0 0  9991
2 14129  25.9269 216.7306 6005072 120.3873 311.9427  2.05868912295847
UOSAT 2 (UO-11)         
1 14781U 84021B   26185.33680631  .00001623  00000+0  17048-3 0  9992
2 14781  97.8067 150.7210 0008909 121.3323 238.8769 14.90828993259683
LUSAT (LO-19)           
1 20442U 90005G   26185.48457947  .00000187  00000+0  83428-4 0  9990
2 20442  98.8845 207.7664 0012083 150.7420 209.4442 14.34128816904872
EYESAT A (AO-27)        
1 22825U 93061C   26184.64172526  .00000129  00000+0  66110-4 0  9991
2 22825  98.6874 252.0488 0009299  57.1001 303.1075 14.30946735709350
ITAMSAT (IO-26)         
1 22826U 93061D   26185.45505957  .00000132  00000+0  66438-4 0  9997
2 22826  98.6820 252.7811 0009558  39.4050 320.7827 14.31374357709787
RADIO ROSTO (RS15)      
1 23439U 94085A   26185.67642109 -.00000021  00000+0  61026-3 0  9995
2 23439  64.8176 274.9321 0156534   0.6436 359.4663 11.27583563297876
JAS-2 (FO-29)           
1 24278U 96046B   26185.83332930 -.00000022  00000+0  11395-4 0  9998
2 24278  98.5226  32.2868 0350728  50.7729 312.3996 13.53275006475552
TECHSAT 1B (GO-32)      
1 25397U 98043D   26185.69536283  .00000103  00000+0  64728-4 0  9998
2 25397  99.0076 178.8961 0001849 131.4740 228.6597 14.24432028453822
ISS (ZARYA)             
1 25544U 98067A   26185.79857271  .00009725  00000+0  18504-3 0  9991
2 25544  51.6303 212.9192 0006761 256.1012 103.9224 15.48894567574489
PCSAT (NO-44)           
1 26931U 01043C   26185.76031717  .00000180  00000+0  98038-4 0  9993
2 26931  67.0488 198.8194 0006011 265.8783  94.1632 14.31962451292962
SAUDISAT 1C (SO-50)     
1 27607U 02058C   26185.68749616  .00001404  00000+0  18212-3 0  9991
2 27607  64.5520  74.8394 0074817 259.1898 100.0781 14.83086074267058
CUTE-1 (CO-55)          
1 27844U 03031E   26185.73961448  .00000442  00000+0  21011-3 0  9993
2 27844  98.6737 194.0777 0010516 129.7528 230.4579 14.24347463194179
CUBESAT XI-IV (CO-57)   
1 27848U 03031J   26185.94773638  .00000336  00000+0  16664-3 0  9992
2 27848  98.6769 193.9817 0010102 146.4963 213.6856 14.23630898193908
MOZHAETS 4 (RS22)       
1 27939U 03042A   26186.01487558  .00000891  00000+0  14538-3 0  9991
2 27939  98.3470  10.8774 0010431 206.7413 273.3478 14.73499527218176
CUBESAT XI-V            
1 28895U 05043F   26185.38895324  .00001770  00000+0  28553-3 0  9998
2 28895  98.3005 341.3738 0014782 147.1004 213.1126 14.72680865104285
CUTE-1.7+APD II (CO-65) 
1 32785U 08021C   26185.88114395  .00008623  00000+0  53961-3 0  9992
2 32785  97.8291 167.6702 0007867 340.9032  19.1900 15.09633593987863
SEEDS II (CO-66)        
1 32791U 08021J   26185.43263930  .00026699  00000+0  82865-3 0  9998
2 32791  97.7524 184.1606 0001728 182.8998 177.2234 15.33363820989935
YUBILEINY (RS30)        
1 32953U 08025A   26185.88411378  .00000074  00000+0  45991-3 0  9990
2 32953  82.5053 344.4297 0018506 272.8965  86.9997 12.43180406821894
KKS-1 (KISEKI)          
1 33499U 09002H   26185.73009765  .00001975  00000+0  24873-3 0  9996
2 33499  98.1181 108.4502 0006658 226.6782 133.3877 14.83172947938790
SWISSCUBE               
1 35932U 09051B   26185.47808840  .00001528  00000+0  31098-3 0  9997
2 35932  98.4021  93.6669 0007217 148.5860 211.5774 14.62517748891680
